stk.v.4.3 

BEGIN Ephemeris 
 
NumberOfEphemerisPoints		146 
ScenarioEpoch	    1 Sep 2020 17:32:14.977810085 
InterpolationMethod		Lagrange 
InterpolationOrder		5 
CentralBody				Earth 
CoordinateSystem			TEME 
CoordinateSystemEpoch	  1 Sep 2020 17:32:14.977810085 
DistanceUnit			Kilometers 
 
EphemerisTimePosVel 
 
       0.00000000    -512.50579486    7139.65478045       0.03979678 -0.467461697 -0.043126712  7.449567173
 END Ephemeris 
